NORAD_CAT_ID,OBJECT_NAME,OBJECT_TYPE,EPOCH,MEAN_MOTION,ECCENTRICITY,INCLINATION,RA_OF_ASC_NODE,ARG_OF_PERICENTER,MEAN_ANOMALY,BSTAR,MEAN_MOTION_DOT,MEAN_MOTION_DDOT,TLE_LINE0,TLE_LINE1,TLE_LINE2,SEMIMAJOR_AXIS,PERIOD,APOGEE,PERIGEE,DECAYED
55319.0,STARLINK-5196,PAYLOAD,2023-01-24 16:00:00,15.94798406,0.0038016,69.9996,55.1958,163.5184,358.7992,-0.0021564,-0.00892106,0.00025181,0 STARLINK-5196,1 55319U 23010BC  23024.66667824 -.00892106  25181-3 -21564-2 0  9993,2 55319  69.9996  55.1958 0038016 163.5184 358.7992 15.94798406  1302,6667.013000000001,90.294,314.223,263.533,0.0
55319.0,STARLINK-5196,PAYLOAD,2023-01-25 14:00:01,15.931656,0.0029083,69.9993,52.525,165.7729,215.0574,-0.0024964,-0.00917343,0.0002607,0 STARLINK-5196,1 55319U 23010BC  23025.58334491 -.00917343  26070-3 -24964-2 0  9992,2 55319  69.9993  52.5250 0029083 165.7729 215.0574 15.93165600  1302,6671.568,90.386,312.836,274.03,0.0
55319.0,STARLINK-5196,PAYLOAD,2023-01-25 16:00:01,15.93006151,0.002864,69.9995,52.2829,165.8421,332.8357,-0.0024596,-0.00895221,0.00024878,0 STARLINK-5196,1 55319U 23010BC  23025.66668981 -.00895221  24878-3 -24596-2 0  9990,2 55319  69.9995  52.2829 0028640 165.8421 332.8357 15.93006151  1459,6672.013000000001,90.395,312.986,274.769,0.0
55319.0,STARLINK-5196,PAYLOAD,2023-01-25 22:00:00,15.92554154,0.0026421,69.9999,51.556,166.3988,325.2789,-0.002512,-0.00887478,0.00024368,0 STARLINK-5196,1 55319U 23010BC  23025.91667824 -.00887478  24368-3 -25120-2 0  9996,2 55319  69.9999  51.5560 0026421 166.3988 325.2789 15.92554154  1305,6673.275,90.421,312.772,277.509,0.0
55319.0,STARLINK-5196,PAYLOAD,2023-01-26 00:00:00,15.92419336,0.0026005,69.9999,51.31399999999999,166.83900000000003,82.4326,-0.0026246999999999,-0.00919546,0.00025987,0 STARLINK-5196,1 55319U 23010BC  23026.00001157 -.00919546  25987-3 -26247-2 0  9999,2 55319  69.9999  51.3140 0026005 166.8390  82.4326 15.92419336  1511,6673.651999999999,90.428,312.872,278.16200000000003,0.0
55319.0,STARLINK-5196,PAYLOAD,2023-01-26 10:00:00,15.91661739,0.0022214,70.0003,50.1033,169.18099999999998,307.4153,-0.0026854,-0.00896635,0.00024613,0 STARLINK-5196,1 55319U 23010BC  23026.41667824 -.00896635  24613-3 -26854-2 0  9995,2 55319  70.0003  50.1033 0022214 169.1810 307.4153 15.91661739  1578,6675.769,90.471,312.464,282.805,0.0
55319.0,STARLINK-5196,PAYLOAD,2023-01-26 14:00:01,15.91375849,0.0020334,69.9995,49.6192,171.5565,179.6509,-0.0028255,-0.00925869,0.00026044,0 STARLINK-5196,1 55319U 23010BC  23026.58334491 -.00925869  26044-3 -28255-2 0  9993,2 55319  69.9995  49.6192 0020334 171.5565 179.6509 15.91375849  1308,6676.569,90.488,312.01,284.858,0.0
55319.0,STARLINK-5196,PAYLOAD,2023-01-26 18:00:00,15.91073185,0.001942,70.0,49.1356,172.6731,52.9712,-0.0028498,-0.00917873,0.00025552,0 STARLINK-5196,1 55319U 23010BC  23026.75001157 -.00917873  25552-3 -28498-2 0  9990,2 55319  70.0000  49.1356 0019420 172.6731  52.9712 15.91073185  1639,6677.416,90.505,312.248,286.313,0.0
55319.0,STARLINK-5196,PAYLOAD,2023-01-27 02:00:01,15.90486353,0.0016387,70.0002,48.1694,177.2544,156.7188,-0.0030213,-0.00939442,0.00026519,0 STARLINK-5196,1 55319U 23010BC  23027.08334491 -.00939442  26519-3 -30213-2 0  9995,2 55319  70.0002  48.1694 0016387 177.2544 156.7188 15.90486353  1686,6679.058000000001,90.538,311.868,289.978,0.0
55319.0,STARLINK-5196,PAYLOAD,2023-01-27 08:00:01,15.90036024,0.0014904999999999,69.9999,47.4451,179.9457,144.8081,-0.0030915,-0.0093755,0.00026303,0 STARLINK-5196,1 55319U 23010BC  23027.33334491 -.00937550  26303-3 -30915-2 0  9991,2 55319  69.9999  47.4451 0014905 179.9457 144.8081 15.90036024  1728,6680.319,90.564,312.141,292.22700000000003,0.0
55319.0,STARLINK-5196,PAYLOAD,2023-01-27 14:00:01,15.89581405,0.0012917999999999,69.9993,46.7209,186.1679,128.9647,-0.0031306,-0.0092562999999999,0.00025573,0 STARLINK-5196,1 55319U 23010BC  23027.58334491 -.00925630  25573-3 -31306-2 0  9997,2 55319  69.9993  46.7209 0012918 186.1679 128.9647 15.89581405  1304,6681.593000000001,90.59,312.089,294.826,0.0
55319.0,STARLINK-5196,PAYLOAD,2023-01-27 16:00:00,15.89428779,0.0012412,69.9996,46.4801,187.8995,243.9359,-0.0031254,-0.00916559,0.00025073,0 STARLINK-5196,1 55319U 23010BC  23027.66667824 -.00916559  25073-3 -31254-2 0  9992,2 55319  69.9996  46.4801 0012412 187.8995 243.9359 15.89428779  1773,6682.02,90.599,312.17900000000003,295.592,0.0
55319.0,STARLINK-5196,PAYLOAD,2023-01-27 22:00:00,15.88978692,0.0010583,69.9999,45.7571,196.3311,225.3432,-0.0031947,-0.00914293,0.00024849,0 STARLINK-5196,1 55319U 23010BC  23027.91667824 -.00914293  24849-3 -31947-2 0  9992,2 55319  69.9999  45.7571 0010583 196.3311 225.3432 15.88978692  1810,6683.281999999999,90.624,312.22,298.074,0.0
55319.0,STARLINK-5196,PAYLOAD,2023-01-28 14:00:01,15.87786627,0.0008283,69.9989,43.8298,225.6318,46.9719,-0.0034278,-0.00844167,0.0,0 STARLINK-5196,1 55319U 23010BC  23028.58334491 -.00844167  00000-0 -34278-2 0  9999,2 55319  69.9989  43.8298 0008283 225.6318  46.9719 15.87786627  1304,6686.627,90.692,314.03,302.953,0.0
55319.0,STARLINK-5196,PAYLOAD,2023-01-28 22:00:00,15.87189758,0.0008459,69.9997,42.8687,245.6958,131.2969,-0.0035435,-0.00847067,0.0,0 STARLINK-5196,1 55319U 23010BC  23028.91667824 -.00847067  00000-0 -35435-2 0  9993,2 55319  69.9997  42.8687 0008459 245.6958 131.2969 15.87189758  1308,6688.303,90.726,315.826,304.51,0.0
55319.0,STARLINK-5196,PAYLOAD,2023-01-29 00:00:00,15.87028413,0.0008462,70.0,42.6288,248.8932,244.0882,-0.0034677,-0.00824419,0.0,0 STARLINK-5196,1 55319U 23010BC  23029.00001157 -.00824419  00000-0 -34677-2 0  9998,2 55319  70.0000  42.6288 0008462 248.8932 244.0882 15.87028413  1983,6688.756,90.736,316.281,304.961,0.0
55319.0,STARLINK-5196,PAYLOAD,2023-01-29 22:00:01,15.85376121,0.0008482,69.9999,39.9882,269.3095,56.6225,-0.0037052,-0.00813444,0.0,0 STARLINK-5196,1 55319U 23010BC  23029.91668981 -.00813444  00000-0 -37052-2 0  9998,2 55319  69.9999  39.9882 0008482 269.3095  56.6225 15.85376121  1300,6693.403,90.83,320.945,309.591,0.0
55319.0,STARLINK-5196,PAYLOAD,2023-01-30 00:00:00,15.85252116,0.0007917,70.0002,39.7487,270.1465,171.1567,-0.0039343,-0.00854194,0.0,0 STARLINK-5196,1 55319U 23010BC  23030.00001157 -.00854194  00000-0 -39343-2 0  9998,2 55319  70.0002  39.7487 0007917 270.1465 171.1567 15.85252116  2142,6693.752,90.837,320.916,310.317,0.0
55319.0,STARLINK-5196,PAYLOAD,2023-01-30 14:00:01,15.84207522,0.0005138,69.9995,38.0724,270.4655,257.7146,-0.0041549,-0.00855627,0.0,0 STARLINK-5196,1 55319U 23010BC  23030.58334491 -.00855627  00000-0 -41549-2 0  9994,2 55319  69.9995  38.0724 0005138 270.4655 257.7146 15.84207522  1304,6696.694,90.897,322.0,315.118,0.0
55319.0,STARLINK-5196,PAYLOAD,2023-01-30 22:00:00,15.83607377,0.0003966,70.0001,37.1157,276.7158,351.5509,-0.0042412,-0.00848711,0.0,0 STARLINK-5196,1 55319U 23010BC  23030.91667824 -.00848711  00000-0 -42412-2 0  9996,2 55319  70.0001  37.1157 0003966 276.7158 351.5509 15.83607377  1306,6698.386,90.932,322.907,317.594,0.0
55319.0,STARLINK-5196,PAYLOAD,2023-01-31 02:00:01,15.83299808,0.0003605,70.0001,36.6378,280.8824,217.1627,-0.0042359,-0.00836351,0.0,0 STARLINK-5196,1 55319U 23010BC  23031.08334491 -.00836351  00000-0 -42359-2 0  9993,2 55319  70.0001  36.6378 0003605 280.8824 217.1627 15.83299808  2317,6699.253,90.949,323.533,318.703,0.0
55319.0,STARLINK-5196,PAYLOAD,2023-01-31 14:00:01,15.82411042,0.0003508,69.9992,35.2046,271.9004,194.3892,-0.0044852,-0.00848002,0.0,0 STARLINK-5196,1 55319U 23010BC  23031.58334491 -.00848002  00000-0 -44852-2 0  9994,2 55319  69.9992  35.2046 0003508 271.9004 194.3892 15.82411042  1306,6701.762,91.0,325.978,321.276,0.0
55319.0,STARLINK-5196,PAYLOAD,2023-01-31 22:00:00,15.81805048,0.0003477,69.9999,34.251,271.0673,293.1616,-0.0045501,-0.00837216,0.0,0 STARLINK-5196,1 55319U 23010BC  23031.91667824 -.00837216  00000-0 -45501-2 0  9997,2 55319  69.9999  34.2510 0003477 271.0673 293.1616 15.81805048  2457,6703.473,91.035,327.669,323.007,0.0
55319.0,STARLINK-5196,PAYLOAD,2023-02-01 14:00:01,15.80618654,0.0003637,69.9991,32.344,268.1075,129.8372,-0.0048849,-0.00849518,0.0,0 STARLINK-5196,1 55319U 23010BC  23032.58334491 -.00849518  00000-0 -48849-2 0  9998,2 55319  69.9991  32.3440 0003637 268.1075 129.8372 15.80618654  1302,6706.827,91.104,331.131,326.253,0.0
55319.0,STARLINK-5196,PAYLOAD,2023-02-01 22:00:00,15.80009454,0.0003521,70.0002,31.3932,270.6194,223.1148,-0.0049296,-0.0083495,0.0,0 STARLINK-5196,1 55319U 23010BC  23032.91667824 -.00834950  00000-0 -49296-2 0  9995,2 55319  70.0002  31.3932 0003521 270.6194 223.1148 15.80009454  2600,6708.551,91.139,332.778,328.054,0.0
55319.0,STARLINK-5196,PAYLOAD,2023-02-02 14:00:01,15.78816264,0.0003574,69.9991,29.4916,265.3318,57.8186,-0.0052226,-0.00837508,0.0,0 STARLINK-5196,1 55319U 23010BC  23033.58334491 -.00837508  00000-0 -52226-2 0  9999,2 55319  69.9991  29.4916 0003574 265.3318  57.8186 15.78816264  1303,6711.93,91.208,336.194,331.397,0.0
55319.0,STARLINK-5196,PAYLOAD,2023-02-03 02:00:01,15.77944401,0.0003737,69.9994,28.0677,258.2756,25.0428,-0.0056665,-0.00870335,0.0,0 STARLINK-5196,1 55319U 23010BC  23034.08334491 -.00870335  00000-0 -56665-2 0  9991,2 55319  69.9994  28.0677 0003737 258.2756  25.0428 15.77944401  2797,6714.403,91.258,338.777,333.758,0.0
55319.0,STARLINK-5196,PAYLOAD,2023-02-03 14:00:01,15.77032478,0.000349,69.9989,26.6465,263.8985,337.9952,-0.0057636,-0.008516,0.0,0 STARLINK-5196,1 55319U 23010BC  23034.58334491 -.00851600  00000-0 -57636-2 0  9999,2 55319  69.9989  26.6465 0003490 263.8985 337.9952 15.77032478  1307,6716.991,91.311,341.2,336.512,0.0
55319.0,STARLINK-5196,PAYLOAD,2023-02-03 22:00:00,15.76418701,0.0003612,69.9998,25.7008,268.7864,64.5957,-0.0057478,-0.0082871,0.0,0 STARLINK-5196,1 55319U 23010BC  23034.91667824 -.00828710  00000-0 -57478-2 0  9995,2 55319  69.9998  25.7008 0003612 268.7864  64.5957 15.76418701  1300,6718.734,91.346,343.026,338.172,0.0
